ONEWEB-0564             
1 55801U 23029F   25354.27286581  .00000116  00000+0  25324-3 0  9999
2 55801  87.9204 310.1513 0001965  92.2787 267.8571 13.20771411137533
ONEWEB-0638             
1 55802U 23029G   25354.36403671  .00000131  00000+0  31993-3 0  9997
2 55802  87.8990 325.3949 0002246  89.6672 270.4715 13.14504460135902
ONEWEB-0639             
1 55803U 23029H   25354.48337303  .00000009  00000+0 -91234-5 0  9990
2 55803  87.9196 340.5377 0002237  58.4072 301.7279 13.19724944135330
ONEWEB-0640             
1 55804U 23029J   25354.44966424  .00000255  00000+0  65376-3 0  9997
2 55804  87.8995 325.3661 0002606  81.8414 278.3012 13.14504391135931
ONEWEB-0641             
1 55805U 23029K   25354.47862957  .00000059  00000+0  11406-3 0  9994
2 55805  87.9205 340.5203 0001815  80.4212 279.7126 13.19725693135341
ONEWEB-0642             
1 55806U 23029L   25354.39807640  .00000137  00000+0  31079-3 0  9999
2 55806  87.9195 340.5587 0001874  58.5727 301.5588 13.19725798135327
ONEWEB-0643             
1 55807U 23029M   25354.41952750 -.00000447  00000+0 -12401-2 0  9999
2 55807  87.9000 325.3584 0001599  60.5537 299.5752 13.14503297135903
ONEWEB-0644             
1 55808U 23029N   25354.46914863  .00000086  00000+0  18359-3 0  9994
2 55808  87.9193 340.5537 0001743  73.3430 286.7894 13.19727151135333
